{
  "type": "FeatureCollection",
  "features": [
    {
      "type": "Feature",
      "properties": {
        "norad_id": 29816,
        "name": "FENGYUN 1C DEB",
        "group": "fengyun-1c-debris",
        "lat": -11.545672825619356,
        "lon": -158.85540508415292,
        "alt_km": 895.1470312675556,
        "timestamp": "2025-12-05T16:54:14.920269+00:00",
        "meta_object_name": "FENGYUN 1C DEB",
        "meta_object_id": "1999-025DJ",
        "meta_epoch": "2025-12-05T04:13:22.796256",
        "meta_mean_motion": 14.44186168,
        "meta_eccentricity": 0.02378772,
        "meta_inclination": 98.993,
        "meta_ra_of_asc_node": 198.7318,
        "meta_arg_of_pericenter": 199.7029,
        "meta_mean_anomaly": 281.8216,
        "meta_ephemeris_type": 0,
        "meta_classification_type": "U",
        "meta_norad_cat_id": 29816,
        "meta_element_set_no": 999,
        "meta_rev_at_epoch": 98078,
        "meta_bstar": 0.0022173216,
        "meta_mean_motion_dot": 0.00010714,
        "meta_mean_motion_ddot": 0,
        "tle_line1": "1 29816U 99025DJ  25339.17595829  .00010714  00000+0  22173-2 0  9998",
        "tle_line2": "2 29816  98.9930 198.7318 0237877 199.7029 281.8216 14.44186168980787"
      },
      "geometry": {
        "type": "Point",
        "coordinates": [
          -158.85540508415292,
          -11.545672825619356
        ]
      }
    },
    {
      "type": "Feature",
      "properties": {
        "norad_id": 29817,
        "name": "FENGYUN 1C DEB",
        "group": "fengyun-1c-debris",
        "lat": -34.0083181861661,
        "lon": -24.9691506762835,
        "alt_km": 847.7840657564475,
        "timestamp": "2025-12-05T16:54:14.920279+00:00",
        "meta_object_name": "FENGYUN 1C DEB",
        "meta_object_id": "1999-025DK",
        "meta_epoch": "2025-12-04T22:38:31.926048",
        "meta_mean_motion": 14.14237449,
        "meta_eccentricity": 0.0012619,
        "meta_inclination": 98.5569,
        "meta_ra_of_asc_node": 328.4715,
        "meta_arg_of_pericenter": 36.9351,
        "meta_mean_anomaly": 17.0272,
        "meta_ephemeris_type": 0,
        "meta_classification_type": "U",
        "meta_norad_cat_id": 29817,
        "meta_element_set_no": 999,
        "meta_rev_at_epoch": 97285,
        "meta_bstar": 0.00055607,
        "meta_mean_motion_dot": 1.02e-05,
        "meta_mean_motion_ddot": 0,
        "tle_line1": "1 29817U 99025DK  25338.94342507  .00001020  00000+0  55607-3 0  9995",
        "tle_line2": "2 29817  98.5569 328.4715 0012619  36.9351  17.0272 14.14237449972856"
      },
      "geometry": {
        "type": "Point",
        "coordinates": [
          -24.9691506762835,
          -34.0083181861661
        ]
      }
    },
    {
      "type": "Feature",
      "properties": {
        "norad_id": 29818,
        "name": "FENGYUN 1C DEB",
        "group": "fengyun-1c-debris",
        "lat": -53.12831351334538,
        "lon": -130.89757863642984,
        "alt_km": 898.0084167100549,
        "timestamp": "2025-12-05T16:54:14.920288+00:00",
        "meta_object_name": "FENGYUN 1C DEB",
        "meta_object_id": "1999-025DL",
        "meta_epoch": "2025-12-05T05:43:48.717984",
        "meta_mean_motion": 14.04494541,
        "meta_eccentricity": 0.01154824,
        "meta_inclination": 98.7219,
        "meta_ra_of_asc_node": 216.8452,
        "meta_arg_of_pericenter": 46.7828,
        "meta_mean_anomaly": 67.8109,
        "meta_ephemeris_type": 0,
        "meta_classification_type": "U",
        "meta_norad_cat_id": 29818,
        "meta_element_set_no": 999,
        "meta_rev_at_epoch": 96704,
        "meta_bstar": 0.00032205346,
        "meta_mean_motion_dot": 5.04e-06,
        "meta_mean_motion_ddot": 0,
        "tle_line1": "1 29818U 99025DL  25339.23875831  .00000504  00000+0  32205-3 0  9995",
        "tle_line2": "2 29818  98.7219 216.8452 0115482  46.7828  67.8109 14.04494541967043"
      },
      "geometry": {
        "type": "Point",
        "coordinates": [
          -130.89757863642984,
          -53.12831351334538
        ]
      }
    },
    {
      "type": "Feature",
      "properties": {
        "norad_id": 29819,
        "name": "FENGYUN 1C DEB",
        "group": "fengyun-1c-debris",
        "lat": 59.57830894561561,
        "lon": 158.907415806887,
        "alt_km": 762.3368873802601,
        "timestamp": "2025-12-05T16:54:14.920297+00:00",
        "meta_object_name": "FENGYUN 1C DEB",
        "meta_object_id": "1999-025DM",
        "meta_epoch": "2025-12-04T21:47:04.822080",
        "meta_mean_motion": 14.0217884,
        "meta_eccentricity": 0.019156,
        "meta_inclination": 98.7302,
        "meta_ra_of_asc_node": 322.9744,
        "meta_arg_of_pericenter": 88.9,
        "meta_mean_anomaly": 330.0255,
        "meta_ephemeris_type": 0,
        "meta_classification_type": "U",
        "meta_norad_cat_id": 29819,
        "meta_element_set_no": 999,
        "meta_rev_at_epoch": 96510,
        "meta_bstar": 0.00062849,
        "meta_mean_motion_dot": 1.089e-05,
        "meta_mean_motion_ddot": 0,
        "tle_line1": "1 29819U 99025DM  25338.90769470  .00001089  00000+0  62849-3 0  9996",
        "tle_line2": "2 29819  98.7302 322.9744 0191560  88.9000 330.0255 14.02178840965102"
      },
      "geometry": {
        "type": "Point",
        "coordinates": [
          158.907415806887,
          59.57830894561561
        ]
      }
    },
    {
      "type": "Feature",
      "properties": {
        "norad_id": 29820,
        "name": "FENGYUN 1C DEB",
        "group": "fengyun-1c-debris",
        "lat": 80.45914745996393,
        "lon": -80.70065719107981,
        "alt_km": 928.8890585075815,
        "timestamp": "2025-12-05T16:54:14.920306+00:00",
        "meta_object_name": "FENGYUN 1C DEB",
        "meta_object_id": "1999-025DN",
        "meta_epoch": "2025-12-05T06:17:29.768640",
        "meta_mean_motion": 14.02585997,
        "meta_eccentricity": 0.00717197,
        "meta_inclination": 98.8317,
        "meta_ra_of_asc_node": 346.5409,
        "meta_arg_of_pericenter": 258.8083,
        "meta_mean_anomaly": 116.1963,
        "meta_ephemeris_type": 0,
        "meta_classification_type": "U",
        "meta_norad_cat_id": 29820,
        "meta_element_set_no": 999,
        "meta_rev_at_epoch": 96455,
        "meta_bstar": 0.0007588751,
        "meta_mean_motion_dot": 1.153e-05,
        "meta_mean_motion_ddot": 0,
        "tle_line1": "1 29820U 99025DN  25339.26215010  .00001153  00000+0  75888-3 0  9993",
        "tle_line2": "2 29820  98.8317 346.5409 0071719 258.8083 116.1963 14.02585997964555"
      },
      "geometry": {
        "type": "Point",
        "coordinates": [
          -80.70065719107981,
          80.45914745996393
        ]
      }
    },
    {
      "type": "Feature",
      "properties": {
        "norad_id": 29821,
        "name": "FENGYUN 1C DEB",
        "group": "fengyun-1c-debris",
        "lat": -72.95751519143394,
        "lon": 65.40962041946749,
        "alt_km": 1080.0100620168414,
        "timestamp": "2025-12-05T16:54:14.920316+00:00",
        "meta_object_name": "FENGYUN 1C DEB",
        "meta_object_id": "1999-025DP",
        "meta_epoch": "2025-12-05T03:59:18.411648",
        "meta_mean_motion": 14.11010379,
        "meta_eccentricity": 0.03764681,
        "meta_inclination": 98.8749,
        "meta_ra_of_asc_node": 34.2323,
        "meta_arg_of_pericenter": 142.1136,
        "meta_mean_anomaly": 287.8204,
        "meta_ephemeris_type": 0,
        "meta_classification_type": "U",
        "meta_norad_cat_id": 29821,
        "meta_element_set_no": 999,
        "meta_rev_at_epoch": 96404,
        "meta_bstar": 0.0021154396,
        "meta_mean_motion_dot": 7.379e-05,
        "meta_mean_motion_ddot": 0,
        "tle_line1": "1 29821U 99025DP  25339.16618532  .00007379  00000+0  21154-2 0  9991",
        "tle_line2": "2 29821  98.8749  34.2323 0376468 142.1136 287.8204 14.11010379964049"
      },
      "geometry": {
        "type": "Point",
        "coordinates": [
          65.40962041946749,
          -72.95751519143394
        ]
      }
    },
    {
      "type": "Feature",
      "properties": {
        "norad_id": 29827,
        "name": "FENGYUN 1C DEB",
        "group": "fengyun-1c-debris",
        "lat": -3.818545649536641,
        "lon": -28.340322154953462,
        "alt_km": 805.2781365089886,
        "timestamp": "2025-12-05T16:54:14.920325+00:00",
        "meta_object_name": "FENGYUN 1C DEB",
        "meta_object_id": "1999-025DV",
        "meta_epoch": "2025-12-04T12:47:01.161312",
        "meta_mean_motion": 14.21668084,
        "meta_eccentricity": 0.0025424,
        "meta_inclination": 98.6017,
        "meta_ra_of_asc_node": 329.9389,
        "meta_arg_of_pericenter": 346.5999,
        "meta_mean_anomaly": 136.2788,
        "meta_ephemeris_type": 0,
        "meta_classification_type": "U",
        "meta_norad_cat_id": 29827,
        "meta_element_set_no": 999,
        "meta_rev_at_epoch": 97746,
        "meta_bstar": 0.00062551,
        "meta_mean_motion_dot": 1.335e-05,
        "meta_mean_motion_ddot": 0,
        "tle_line1": "1 29827U 99025DV  25338.53265233  .00001335  00000+0  62551-3 0  9996",
        "tle_line2": "2 29827  98.6017 329.9389 0025424 346.5999 136.2788 14.21668084977464"
      },
      "geometry": {
        "type": "Point",
        "coordinates": [
          -28.340322154953462,
          -3.818545649536641
        ]
      }
    }
  ]
}